[{"OBJECT_NAME":"STARLINK-34651","OBJECT_ID":"2025-152V","EPOCH":"2026-03-09T20:14:48.161472","MEAN_MOTION":15.01260113,"ECCENTRICITY":8.973e-5,"INCLINATION":97.6021,"RA_OF_ASC_NODE":285.8752,"ARG_OF_PERICENTER":142.7012,"MEAN_ANOMALY":217.4275,"EPHEMERIS_TYPE":0,"CLASSIFICATION_TYPE":"U","NORAD_CAT_ID":64861,"ELEMENT_SET_NO":999,"REV_AT_EPOCH":3545,"BSTAR":0.00045538914,"MEAN_MOTION_DOT":5.796e-5,"MEAN_MOTION_DDOT":0},{"OBJECT_NAME":"UNISAT-5","OBJECT_ID":"2013-066F","EPOCH":"2026-03-09T22:02:55.134816","MEAN_MOTION":15.04155626,"ECCENTRICITY":0.00317175,"INCLINATION":97.6976,"RA_OF_ASC_NODE":39.5171,"ARG_OF_PERICENTER":68.1555,"MEAN_ANOMALY":292.3039,"EPHEMERIS_TYPE":0,"CLASSIFICATION_TYPE":"U","NORAD_CAT_ID":39421,"ELEMENT_SET_NO":999,"REV_AT_EPOCH":66774,"BSTAR":0.0004680489,"MEAN_MOTION_DOT":6.504e-5,"MEAN_MOTION_DDOT":0}]
